{"type":"FeatureCollection","features":[{"type":"Feature","properties":{"TenureID":"AR-1041","Owner":"Aurora Ridge Minerals Corp."},"geometry":{"type":"Polygon","coordinates":[[[-127.22772,55.420805],[-127.2198,55.420805],[-127.2198,55.425296],[-127.22772,55.425296],[-127.22772,55.420805]]]}},{"type":"Feature","properties":{"TenureID":"AR-1042","Owner":"Aurora Ridge Minerals Corp."},"geometry":{"type":"Polygon","coordinates":[[[-127.2198,55.420805],[-127.21188,55.420805],[-127.21188,55.425296],[-127.2198,55.425296],[-127.2198,55.420805]]]}},{"type":"Feature","properties":{"TenureID":"AR-1043","Owner":"Aurora Ridge Minerals Corp."},"geometry":{"type":"Polygon","coordinates":[[[-127.21188,55.420805],[-127.20396,55.420805],[-127.20396,55.425296],[-127.21188,55.425296],[-127.21188,55.420805]]]}},{"type":"Feature","properties":{"TenureID":"AR-1044","Owner":"Aurora Ridge Minerals Corp."},"geometry":{"type":"Polygon","coordinates":[[[-127.20396,55.420805],[-127.19604,55.420805],[-127.19604,55.425296],[-127.20396,55.425296],[-127.20396,55.420805]]]}},{"type":"Feature","properties":{"TenureID":"AR-1045","Owner":"Aurora Ridge Minerals Corp."},"geometry":{"type":"Polygon","coordinates":[[[-127.19604,55.420805],[-127.18812,55.420805],[-127.18812,55.425296],[-127.19604,55.425296],[-127.19604,55.420805]]]}},{"type":"Feature","properties":{"TenureID":"AR-1046","Owner":"Aurora Ridge Minerals Corp."},"geometry":{"type":"Polygon","coordinates":[[[-127.18812,55.420805],[-127.1802,55.420805],[-127.1802,55.425296],[-127.18812,55.425296],[-127.18812,55.420805]]]}},{"type":"Feature","properties":{"TenureID":"AR-1047","Owner":"Aurora Ridge Minerals Corp."},"geometry":{"type":"Polygon","coordinates":[[[-127.1802,55.420805],[-127.17228,55.420805],[-127.17228,55.425296],[-127.1802,55.425296],[-127.1802,55.420805]]]}},{"type":"Feature","properties":{"TenureID":"AR-1048","Owner":"Aurora Ridge Minerals Corp."},"geometry":{"type":"Polygon","coordinates":[[[-127.243559,55.425296],[-127.235639,55.425296],[-127.235639,55.429788],[-127.243559,55.429788],[-127.243559,55.425296]]]}},{"type":"Feature","properties":{"TenureID":"AR-1049","Owner":"Aurora Ridge Minerals Corp."},"geometry":{"type":"Polygon","coordinates":[[[-127.235639,55.425296],[-127.22772,55.425296],[-127.22772,55.429788],[-127.235639,55.429788],[-127.235639,55.425296]]]}},{"type":"Feature","properties":{"TenureID":"AR-1050","Owner":"Aurora Ridge Minerals Corp."},"geometry":{"type":"Polygon","coordinates":[[[-127.22772,55.425296],[-127.2198,55.425296],[-127.2198,55.429788],[-127.22772,55.429788],[-127.22772,55.425296]]]}},{"type":"Feature","properties":{"TenureID":"AR-1051","Owner":"Aurora Ridge Minerals Corp."},"geometry":{"type":"Polygon","coordinates":[[[-127.2198,55.425296],[-127.21188,55.425296],[-127.21188,55.429788],[-127.2198,55.429788],[-127.2198,55.425296]]]}},{"type":"Feature","properties":{"TenureID":"AR-1052","Owner":"Aurora Ridge Minerals Corp."},"geometry":{"type":"Polygon","coordinates":[[[-127.21188,55.425296],[-127.20396,55.425296],[-127.20396,55.429788],[-127.21188,55.429788],[-127.21188,55.425296]]]}},{"type":"Feature","properties":{"TenureID":"AR-1053","Owner":"Aurora Ridge Minerals Corp."},"geometry":{"type":"Polygon","coordinates":[[[-127.20396,55.425296],[-127.19604,55.425296],[-127.19604,55.429788],[-127.20396,55.429788],[-127.20396,55.425296]]]}},{"type":"Feature","properties":{"TenureID":"AR-1054","Owner":"Aurora Ridge Minerals Corp."},"geometry":{"type":"Polygon","coordinates":[[[-127.19604,55.425296],[-127.18812,55.425296],[-127.18812,55.429788],[-127.19604,55.429788],[-127.19604,55.425296]]]}},{"type":"Feature","properties":{"TenureID":"AR-1055","Owner":"Aurora Ridge Minerals Corp."},"geometry":{"type":"Polygon","coordinates":[[[-127.18812,55.425296],[-127.1802,55.425296],[-127.1802,55.429788],[-127.18812,55.429788],[-127.18812,55.425296]]]}},{"type":"Feature","properties":{"TenureID":"AR-1056","Owner":"Aurora Ridge Minerals Corp."},"geometry":{"type":"Polygon","coordinates":[[[-127.1802,55.425296],[-127.17228,55.425296],[-127.17228,55.429788],[-127.1802,55.429788],[-127.1802,55.425296]]]}},{"type":"Feature","properties":{"TenureID":"AR-1057","Owner":"Aurora Ridge Minerals Corp."},"geometry":{"type":"Polygon","coordinates":[[[-127.17228,55.425296],[-127.164361,55.425296],[-127.164361,55.429788],[-127.17228,55.429788],[-127.17228,55.425296]]]}},{"type":"Feature","properties":{"TenureID":"AR-1058","Owner":"Aurora Ridge Minerals Corp."},"geometry":{"type":"Polygon","coordinates":[[[-127.164361,55.425296],[-127.156441,55.425296],[-127.156441,55.429788],[-127.164361,55.429788],[-127.164361,55.425296]]]}},{"type":"Feature","properties":{"TenureID":"AR-1059","Owner":"Aurora Ridge Minerals Corp."},"geometry":{"type":"Polygon","coordinates":[[[-127.243559,55.429788],[-127.235639,55.429788],[-127.235639,55.43428],[-127.243559,55.43428],[-127.243559,55.429788]]]}},{"type":"Feature","properties":{"TenureID":"AR-1060","Owner":"Aurora Ridge Minerals Corp."},"geometry":{"type":"Polygon","coordinates":[[[-127.235639,55.429788],[-127.22772,55.429788],[-127.22772,55.43428],[-127.235639,55.43428],[-127.235639,55.429788]]]}},{"type":"Feature","properties":{"TenureID":"AR-1061","Owner":"Aurora Ridge Minerals Corp."},"geometry":{"type":"Polygon","coordinates":[[[-127.22772,55.429788],[-127.2198,55.429788],[-127.2198,55.43428],[-127.22772,55.43428],[-127.22772,55.429788]]]}},{"type":"Feature","properties":{"TenureID":"AR-1062","Owner":"Aurora Ridge Minerals Corp."},"geometry":{"type":"Polygon","coordinates":[[[-127.2198,55.429788],[-127.21188,55.429788],[-127.21188,55.43428],[-127.2198,55.43428],[-127.2198,55.429788]]]}},{"type":"Feature","properties":{"TenureID":"AR-1063","Owner":"Aurora Ridge Minerals Corp."},"geometry":{"type":"Polygon","coordinates":[[[-127.21188,55.429788],[-127.20396,55.429788],[-127.20396,55.43428],[-127.21188,55.43428],[-127.21188,55.429788]]]}},{"type":"Feature","properties":{"TenureID":"AR-1064","Owner":"Aurora Ridge Minerals Corp."},"geometry":{"type":"Polygon","coordinates":[[[-127.20396,55.429788],[-127.19604,55.429788],[-127.19604,55.43428],[-127.20396,55.43428],[-127.20396,55.429788]]]}},{"type":"Feature","properties":{"TenureID":"AR-1065","Owner":"Aurora Ridge Minerals Corp."},"geometry":{"type":"Polygon","coordinates":[[[-127.19604,55.429788],[-127.18812,55.429788],[-127.18812,55.43428],[-127.19604,55.43428],[-127.19604,55.429788]]]}},{"type":"Feature","properties":{"TenureID":"AR-1066","Owner":"Aurora Ridge Minerals Corp."},"geometry":{"type":"Polygon","coordinates":[[[-127.18812,55.429788],[-127.1802,55.429788],[-127.1802,55.43428],[-127.18812,55.43428],[-127.18812,55.429788]]]}},{"type":"Feature","properties":{"TenureID":"AR-1067","Owner":"Aurora Ridge Minerals Corp."},"geometry":{"type":"Polygon","coordinates":[[[-127.1802,55.429788],[-127.17228,55.429788],[-127.17228,55.43428],[-127.1802,55.43428],[-127.1802,55.429788]]]}},{"type":"Feature","properties":{"TenureID":"AR-1068","Owner":"Aurora Ridge Minerals Corp."},"geometry":{"type":"Polygon","coordinates":[[[-127.17228,55.429788],[-127.164361,55.429788],[-127.164361,55.43428],[-127.17228,55.43428],[-127.17228,55.429788]]]}},{"type":"Feature","properties":{"TenureID":"AR-1069","Owner":"Aurora Ridge Minerals Corp."},"geometry":{"type":"Polygon","coordinates":[[[-127.164361,55.429788],[-127.156441,55.429788],[-127.156441,55.43428],[-127.164361,55.43428],[-127.164361,55.429788]]]}},{"type":"Feature","properties":{"TenureID":"AR-1070","Owner":"Aurora Ridge Minerals Corp."},"geometry":{"type":"Polygon","coordinates":[[[-127.259399,55.43428],[-127.251479,55.43428],[-127.251479,55.438771],[-127.259399,55.438771],[-127.259399,55.43428]]]}},{"type":"Feature","properties":{"TenureID":"AR-1071","Owner":"Aurora Ridge Minerals Corp."},"geometry":{"type":"Polygon","coordinates":[[[-127.251479,55.43428],[-127.243559,55.43428],[-127.243559,55.438771],[-127.251479,55.438771],[-127.251479,55.43428]]]}},{"type":"Feature","properties":{"TenureID":"AR-1072","Owner":"Aurora Ridge Minerals Corp."},"geometry":{"type":"Polygon","coordinates":[[[-127.243559,55.43428],[-127.235639,55.43428],[-127.235639,55.438771],[-127.243559,55.438771],[-127.243559,55.43428]]]}},{"type":"Feature","properties":{"TenureID":"AR-1073","Owner":"Aurora Ridge Minerals Corp."},"geometry":{"type":"Polygon","coordinates":[[[-127.235639,55.43428],[-127.22772,55.43428],[-127.22772,55.438771],[-127.235639,55.438771],[-127.235639,55.43428]]]}},{"type":"Feature","properties":{"TenureID":"AR-1074","Owner":"Aurora Ridge Minerals Corp."},"geometry":{"type":"Polygon","coordinates":[[[-127.22772,55.43428],[-127.2198,55.43428],[-127.2198,55.438771],[-127.22772,55.438771],[-127.22772,55.43428]]]}},{"type":"Feature","properties":{"TenureID":"AR-1075","Owner":"Aurora Ridge Minerals Corp."},"geometry":{"type":"Polygon","coordinates":[[[-127.2198,55.43428],[-127.21188,55.43428],[-127.21188,55.438771],[-127.2198,55.438771],[-127.2198,55.43428]]]}},{"type":"Feature","properties":{"TenureID":"AR-1076","Owner":"Aurora Ridge Minerals Corp."},"geometry":{"type":"Polygon","coordinates":[[[-127.21188,55.43428],[-127.20396,55.43428],[-127.20396,55.438771],[-127.21188,55.438771],[-127.21188,55.43428]]]}},{"type":"Feature","properties":{"TenureID":"AR-1077","Owner":"Aurora Ridge Minerals Corp."},"geometry":{"type":"Polygon","coordinates":[[[-127.20396,55.43428],[-127.19604,55.43428],[-127.19604,55.438771],[-127.20396,55.438771],[-127.20396,55.43428]]]}},{"type":"Feature","properties":{"TenureID":"AR-1078","Owner":"Aurora Ridge Minerals Corp."},"geometry":{"type":"Polygon","coordinates":[[[-127.19604,55.43428],[-127.18812,55.43428],[-127.18812,55.438771],[-127.19604,55.438771],[-127.19604,55.43428]]]}},{"type":"Feature","properties":{"TenureID":"AR-1079","Owner":"Aurora Ridge Minerals Corp."},"geometry":{"type":"Polygon","coordinates":[[[-127.18812,55.43428],[-127.1802,55.43428],[-127.1802,55.438771],[-127.18812,55.438771],[-127.18812,55.43428]]]}},{"type":"Feature","properties":{"TenureID":"AR-1080","Owner":"Aurora Ridge Minerals Corp."},"geometry":{"type":"Polygon","coordinates":[[[-127.1802,55.43428],[-127.17228,55.43428],[-127.17228,55.438771],[-127.1802,55.438771],[-127.1802,55.43428]]]}},{"type":"Feature","properties":{"TenureID":"AR-1081","Owner":"Aurora Ridge Minerals Corp."},"geometry":{"type":"Polygon","coordinates":[[[-127.17228,55.43428],[-127.164361,55.43428],[-127.164361,55.438771],[-127.17228,55.438771],[-127.17228,55.43428]]]}},{"type":"Feature","properties":{"TenureID":"AR-1082","Owner":"Aurora Ridge Minerals Corp."},"geometry":{"type":"Polygon","coordinates":[[[-127.164361,55.43428],[-127.156441,55.43428],[-127.156441,55.438771],[-127.164361,55.438771],[-127.164361,55.43428]]]}},{"type":"Feature","properties":{"TenureID":"AR-1083","Owner":"Aurora Ridge Minerals Corp."},"geometry":{"type":"Polygon","coordinates":[[[-127.156441,55.43428],[-127.148521,55.43428],[-127.148521,55.438771],[-127.156441,55.438771],[-127.156441,55.43428]]]}},{"type":"Feature","properties":{"TenureID":"AR-1084","Owner":"Aurora Ridge Minerals Corp."},"geometry":{"type":"Polygon","coordinates":[[[-127.148521,55.43428],[-127.140601,55.43428],[-127.140601,55.438771],[-127.148521,55.438771],[-127.148521,55.43428]]]}},{"type":"Feature","properties":{"TenureID":"AR-1085","Owner":"Aurora Ridge Minerals Corp."},"geometry":{"type":"Polygon","coordinates":[[[-127.251479,55.438771],[-127.243559,55.438771],[-127.243559,55.443263],[-127.251479,55.443263],[-127.251479,55.438771]]]}},{"type":"Feature","properties":{"TenureID":"AR-1086","Owner":"Aurora Ridge Minerals Corp."},"geometry":{"type":"Polygon","coordinates":[[[-127.243559,55.438771],[-127.235639,55.438771],[-127.235639,55.443263],[-127.243559,55.443263],[-127.243559,55.438771]]]}},{"type":"Feature","properties":{"TenureID":"AR-1087","Owner":"Aurora Ridge Minerals Corp."},"geometry":{"type":"Polygon","coordinates":[[[-127.235639,55.438771],[-127.22772,55.438771],[-127.22772,55.443263],[-127.235639,55.443263],[-127.235639,55.438771]]]}},{"type":"Feature","properties":{"TenureID":"AR-1088","Owner":"Aurora Ridge Minerals Corp."},"geometry":{"type":"Polygon","coordinates":[[[-127.22772,55.438771],[-127.2198,55.438771],[-127.2198,55.443263],[-127.22772,55.443263],[-127.22772,55.438771]]]}},{"type":"Feature","properties":{"TenureID":"AR-1089","Owner":"Aurora Ridge Minerals Corp."},"geometry":{"type":"Polygon","coordinates":[[[-127.2198,55.438771],[-127.21188,55.438771],[-127.21188,55.443263],[-127.2198,55.443263],[-127.2198,55.438771]]]}},{"type":"Feature","properties":{"TenureID":"AR-1090","Owner":"Aurora Ridge Minerals Corp."},"geometry":{"type":"Polygon","coordinates":[[[-127.21188,55.438771],[-127.20396,55.438771],[-127.20396,55.443263],[-127.21188,55.443263],[-127.21188,55.438771]]]}},{"type":"Feature","properties":{"TenureID":"AR-1091","Owner":"Aurora Ridge Minerals Corp."},"geometry":{"type":"Polygon","coordinates":[[[-127.20396,55.438771],[-127.19604,55.438771],[-127.19604,55.443263],[-127.20396,55.443263],[-127.20396,55.438771]]]}},{"type":"Feature","properties":{"TenureID":"AR-1092","Owner":"Aurora Ridge Minerals Corp."},"geometry":{"type":"Polygon","coordinates":[[[-127.19604,55.438771],[-127.18812,55.438771],[-127.18812,55.443263],[-127.19604,55.443263],[-127.19604,55.438771]]]}},{"type":"Feature","properties":{"TenureID":"AR-1093","Owner":"Aurora Ridge Minerals Corp."},"geometry":{"type":"Polygon","coordinates":[[[-127.18812,55.438771],[-127.1802,55.438771],[-127.1802,55.443263],[-127.18812,55.443263],[-127.18812,55.438771]]]}},{"type":"Feature","properties":{"TenureID":"AR-1094","Owner":"Aurora Ridge Minerals Corp."},"geometry":{"type":"Polygon","coordinates":[[[-127.1802,55.438771],[-127.17228,55.438771],[-127.17228,55.443263],[-127.1802,55.443263],[-127.1802,55.438771]]]}},{"type":"Feature","properties":{"TenureID":"AR-1095","Owner":"Aurora Ridge Minerals Corp."},"geometry":{"type":"Polygon","coordinates":[[[-127.17228,55.438771],[-127.164361,55.438771],[-127.164361,55.443263],[-127.17228,55.443263],[-127.17228,55.438771]]]}},{"type":"Feature","properties":{"TenureID":"AR-1096","Owner":"Aurora Ridge Minerals Corp."},"geometry":{"type":"Polygon","coordinates":[[[-127.164361,55.438771],[-127.156441,55.438771],[-127.156441,55.443263],[-127.164361,55.443263],[-127.164361,55.438771]]]}},{"type":"Feature","properties":{"TenureID":"AR-1097","Owner":"Aurora Ridge Minerals Corp."},"geometry":{"type":"Polygon","coordinates":[[[-127.156441,55.438771],[-127.148521,55.438771],[-127.148521,55.443263],[-127.156441,55.443263],[-127.156441,55.438771]]]}},{"type":"Feature","properties":{"TenureID":"AR-1098","Owner":"Aurora Ridge Minerals Corp."},"geometry":{"type":"Polygon","coordinates":[[[-127.259399,55.443263],[-127.251479,55.443263],[-127.251479,55.447754],[-127.259399,55.447754],[-127.259399,55.443263]]]}},{"type":"Feature","properties":{"TenureID":"AR-1099","Owner":"Aurora Ridge Minerals Corp."},"geometry":{"type":"Polygon","coordinates":[[[-127.251479,55.443263],[-127.243559,55.443263],[-127.243559,55.447754],[-127.251479,55.447754],[-127.251479,55.443263]]]}},{"type":"Feature","properties":{"TenureID":"AR-1100","Owner":"Aurora Ridge Minerals Corp."},"geometry":{"type":"Polygon","coordinates":[[[-127.243559,55.443263],[-127.235639,55.443263],[-127.235639,55.447754],[-127.243559,55.447754],[-127.243559,55.443263]]]}},{"type":"Feature","properties":{"TenureID":"AR-1101","Owner":"Aurora Ridge Minerals Corp."},"geometry":{"type":"Polygon","coordinates":[[[-127.235639,55.443263],[-127.22772,55.443263],[-127.22772,55.447754],[-127.235639,55.447754],[-127.235639,55.443263]]]}},{"type":"Feature","properties":{"TenureID":"AR-1102","Owner":"Aurora Ridge Minerals Corp."},"geometry":{"type":"Polygon","coordinates":[[[-127.22772,55.443263],[-127.2198,55.443263],[-127.2198,55.447754],[-127.22772,55.447754],[-127.22772,55.443263]]]}},{"type":"Feature","properties":{"TenureID":"AR-1103","Owner":"Aurora Ridge Minerals Corp."},"geometry":{"type":"Polygon","coordinates":[[[-127.2198,55.443263],[-127.21188,55.443263],[-127.21188,55.447754],[-127.2198,55.447754],[-127.2198,55.443263]]]}},{"type":"Feature","properties":{"TenureID":"AR-1104","Owner":"Aurora Ridge Minerals Corp."},"geometry":{"type":"Polygon","coordinates":[[[-127.21188,55.443263],[-127.20396,55.443263],[-127.20396,55.447754],[-127.21188,55.447754],[-127.21188,55.443263]]]}},{"type":"Feature","properties":{"TenureID":"AR-1105","Owner":"Aurora Ridge Minerals Corp."},"geometry":{"type":"Polygon","coordinates":[[[-127.20396,55.443263],[-127.19604,55.443263],[-127.19604,55.447754],[-127.20396,55.447754],[-127.20396,55.443263]]]}},{"type":"Feature","properties":{"TenureID":"AR-1106","Owner":"Aurora Ridge Minerals Corp."},"geometry":{"type":"Polygon","coordinates":[[[-127.19604,55.443263],[-127.18812,55.443263],[-127.18812,55.447754],[-127.19604,55.447754],[-127.19604,55.443263]]]}},{"type":"Feature","properties":{"TenureID":"AR-1107","Owner":"Aurora Ridge Minerals Corp."},"geometry":{"type":"Polygon","coordinates":[[[-127.18812,55.443263],[-127.1802,55.443263],[-127.1802,55.447754],[-127.18812,55.447754],[-127.18812,55.443263]]]}},{"type":"Feature","properties":{"TenureID":"AR-1108","Owner":"Aurora Ridge Minerals Corp."},"geometry":{"type":"Polygon","coordinates":[[[-127.1802,55.443263],[-127.17228,55.443263],[-127.17228,55.447754],[-127.1802,55.447754],[-127.1802,55.443263]]]}},{"type":"Feature","properties":{"TenureID":"AR-1109","Owner":"Aurora Ridge Minerals Corp."},"geometry":{"type":"Polygon","coordinates":[[[-127.17228,55.443263],[-127.164361,55.443263],[-127.164361,55.447754],[-127.17228,55.447754],[-127.17228,55.443263]]]}},{"type":"Feature","properties":{"TenureID":"AR-1110","Owner":"Aurora Ridge Minerals Corp."},"geometry":{"type":"Polygon","coordinates":[[[-127.164361,55.443263],[-127.156441,55.443263],[-127.156441,55.447754],[-127.164361,55.447754],[-127.164361,55.443263]]]}},{"type":"Feature","properties":{"TenureID":"AR-1111","Owner":"Aurora Ridge Minerals Corp."},"geometry":{"type":"Polygon","coordinates":[[[-127.156441,55.443263],[-127.148521,55.443263],[-127.148521,55.447754],[-127.156441,55.447754],[-127.156441,55.443263]]]}},{"type":"Feature","properties":{"TenureID":"AR-1112","Owner":"Aurora Ridge Minerals Corp."},"geometry":{"type":"Polygon","coordinates":[[[-127.148521,55.443263],[-127.140601,55.443263],[-127.140601,55.447754],[-127.148521,55.447754],[-127.148521,55.443263]]]}},{"type":"Feature","properties":{"TenureID":"AR-1113","Owner":"Aurora Ridge Minerals Corp."},"geometry":{"type":"Polygon","coordinates":[[[-127.259399,55.447754],[-127.251479,55.447754],[-127.251479,55.452246],[-127.259399,55.452246],[-127.259399,55.447754]]]}},{"type":"Feature","properties":{"TenureID":"AR-1114","Owner":"Aurora Ridge Minerals Corp."},"geometry":{"type":"Polygon","coordinates":[[[-127.251479,55.447754],[-127.243559,55.447754],[-127.243559,55.452246],[-127.251479,55.452246],[-127.251479,55.447754]]]}},{"type":"Feature","properties":{"TenureID":"AR-1115","Owner":"Aurora Ridge Minerals Corp."},"geometry":{"type":"Polygon","coordinates":[[[-127.243559,55.447754],[-127.235639,55.447754],[-127.235639,55.452246],[-127.243559,55.452246],[-127.243559,55.447754]]]}},{"type":"Feature","properties":{"TenureID":"AR-1116","Owner":"Aurora Ridge Minerals Corp."},"geometry":{"type":"Polygon","coordinates":[[[-127.235639,55.447754],[-127.22772,55.447754],[-127.22772,55.452246],[-127.235639,55.452246],[-127.235639,55.447754]]]}},{"type":"Feature","properties":{"TenureID":"AR-1117","Owner":"Aurora Ridge Minerals Corp."},"geometry":{"type":"Polygon","coordinates":[[[-127.22772,55.447754],[-127.2198,55.447754],[-127.2198,55.452246],[-127.22772,55.452246],[-127.22772,55.447754]]]}},{"type":"Feature","properties":{"TenureID":"AR-1118","Owner":"Aurora Ridge Minerals Corp."},"geometry":{"type":"Polygon","coordinates":[[[-127.2198,55.447754],[-127.21188,55.447754],[-127.21188,55.452246],[-127.2198,55.452246],[-127.2198,55.447754]]]}},{"type":"Feature","properties":{"TenureID":"AR-1119","Owner":"Aurora Ridge Minerals Corp."},"geometry":{"type":"Polygon","coordinates":[[[-127.21188,55.447754],[-127.20396,55.447754],[-127.20396,55.452246],[-127.21188,55.452246],[-127.21188,55.447754]]]}},{"type":"Feature","properties":{"TenureID":"AR-1120","Owner":"Aurora Ridge Minerals Corp."},"geometry":{"type":"Polygon","coordinates":[[[-127.20396,55.447754],[-127.19604,55.447754],[-127.19604,55.452246],[-127.20396,55.452246],[-127.20396,55.447754]]]}},{"type":"Feature","properties":{"TenureID":"AR-1121","Owner":"Aurora Ridge Minerals Corp."},"geometry":{"type":"Polygon","coordinates":[[[-127.19604,55.447754],[-127.18812,55.447754],[-127.18812,55.452246],[-127.19604,55.452246],[-127.19604,55.447754]]]}},{"type":"Feature","properties":{"TenureID":"AR-1122","Owner":"Aurora Ridge Minerals Corp."},"geometry":{"type":"Polygon","coordinates":[[[-127.18812,55.447754],[-127.1802,55.447754],[-127.1802,55.452246],[-127.18812,55.452246],[-127.18812,55.447754]]]}},{"type":"Feature","properties":{"TenureID":"AR-1123","Owner":"Aurora Ridge Minerals Corp."},"geometry":{"type":"Polygon","coordinates":[[[-127.1802,55.447754],[-127.17228,55.447754],[-127.17228,55.452246],[-127.1802,55.452246],[-127.1802,55.447754]]]}},{"type":"Feature","properties":{"TenureID":"AR-1124","Owner":"Aurora Ridge Minerals Corp."},"geometry":{"type":"Polygon","coordinates":[[[-127.17228,55.447754],[-127.164361,55.447754],[-127.164361,55.452246],[-127.17228,55.452246],[-127.17228,55.447754]]]}},{"type":"Feature","properties":{"TenureID":"AR-1125","Owner":"Aurora Ridge Minerals Corp."},"geometry":{"type":"Polygon","coordinates":[[[-127.164361,55.447754],[-127.156441,55.447754],[-127.156441,55.452246],[-127.164361,55.452246],[-127.164361,55.447754]]]}},{"type":"Feature","properties":{"TenureID":"AR-1126","Owner":"Aurora Ridge Minerals Corp."},"geometry":{"type":"Polygon","coordinates":[[[-127.156441,55.447754],[-127.148521,55.447754],[-127.148521,55.452246],[-127.156441,55.452246],[-127.156441,55.447754]]]}},{"type":"Feature","properties":{"TenureID":"AR-1127","Owner":"Aurora Ridge Minerals Corp."},"geometry":{"type":"Polygon","coordinates":[[[-127.148521,55.447754],[-127.140601,55.447754],[-127.140601,55.452246],[-127.148521,55.452246],[-127.148521,55.447754]]]}},{"type":"Feature","properties":{"TenureID":"AR-1128","Owner":"Aurora Ridge Minerals Corp."},"geometry":{"type":"Polygon","coordinates":[[[-127.259399,55.452246],[-127.251479,55.452246],[-127.251479,55.456737],[-127.259399,55.456737],[-127.259399,55.452246]]]}},{"type":"Feature","properties":{"TenureID":"AR-1129","Owner":"Aurora Ridge Minerals Corp."},"geometry":{"type":"Polygon","coordinates":[[[-127.251479,55.452246],[-127.243559,55.452246],[-127.243559,55.456737],[-127.251479,55.456737],[-127.251479,55.452246]]]}},{"type":"Feature","properties":{"TenureID":"AR-1130","Owner":"Aurora Ridge Minerals Corp."},"geometry":{"type":"Polygon","coordinates":[[[-127.243559,55.452246],[-127.235639,55.452246],[-127.235639,55.456737],[-127.243559,55.456737],[-127.243559,55.452246]]]}},{"type":"Feature","properties":{"TenureID":"AR-1131","Owner":"Aurora Ridge Minerals Corp."},"geometry":{"type":"Polygon","coordinates":[[[-127.235639,55.452246],[-127.22772,55.452246],[-127.22772,55.456737],[-127.235639,55.456737],[-127.235639,55.452246]]]}},{"type":"Feature","properties":{"TenureID":"AR-1132","Owner":"Aurora Ridge Minerals Corp."},"geometry":{"type":"Polygon","coordinates":[[[-127.22772,55.452246],[-127.2198,55.452246],[-127.2198,55.456737],[-127.22772,55.456737],[-127.22772,55.452246]]]}},{"type":"Feature","properties":{"TenureID":"AR-1133","Owner":"Aurora Ridge Minerals Corp."},"geometry":{"type":"Polygon","coordinates":[[[-127.2198,55.452246],[-127.21188,55.452246],[-127.21188,55.456737],[-127.2198,55.456737],[-127.2198,55.452246]]]}},{"type":"Feature","properties":{"TenureID":"AR-1134","Owner":"Aurora Ridge Minerals Corp."},"geometry":{"type":"Polygon","coordinates":[[[-127.21188,55.452246],[-127.20396,55.452246],[-127.20396,55.456737],[-127.21188,55.456737],[-127.21188,55.452246]]]}},{"type":"Feature","properties":{"TenureID":"AR-1135","Owner":"Aurora Ridge Minerals Corp."},"geometry":{"type":"Polygon","coordinates":[[[-127.20396,55.452246],[-127.19604,55.452246],[-127.19604,55.456737],[-127.20396,55.456737],[-127.20396,55.452246]]]}},{"type":"Feature","properties":{"TenureID":"AR-1136","Owner":"Aurora Ridge Minerals Corp."},"geometry":{"type":"Polygon","coordinates":[[[-127.19604,55.452246],[-127.18812,55.452246],[-127.18812,55.456737],[-127.19604,55.456737],[-127.19604,55.452246]]]}},{"type":"Feature","properties":{"TenureID":"AR-1137","Owner":"Aurora Ridge Minerals Corp."},"geometry":{"type":"Polygon","coordinates":[[[-127.18812,55.452246],[-127.1802,55.452246],[-127.1802,55.456737],[-127.18812,55.456737],[-127.18812,55.452246]]]}},{"type":"Feature","properties":{"TenureID":"AR-1138","Owner":"Aurora Ridge Minerals Corp."},"geometry":{"type":"Polygon","coordinates":[[[-127.1802,55.452246],[-127.17228,55.452246],[-127.17228,55.456737],[-127.1802,55.456737],[-127.1802,55.452246]]]}},{"type":"Feature","properties":{"TenureID":"AR-1139","Owner":"Aurora Ridge Minerals Corp."},"geometry":{"type":"Polygon","coordinates":[[[-127.17228,55.452246],[-127.164361,55.452246],[-127.164361,55.456737],[-127.17228,55.456737],[-127.17228,55.452246]]]}},{"type":"Feature","properties":{"TenureID":"AR-1140","Owner":"Aurora Ridge Minerals Corp."},"geometry":{"type":"Polygon","coordinates":[[[-127.164361,55.452246],[-127.156441,55.452246],[-127.156441,55.456737],[-127.164361,55.456737],[-127.164361,55.452246]]]}},{"type":"Feature","properties":{"TenureID":"AR-1141","Owner":"Aurora Ridge Minerals Corp."},"geometry":{"type":"Polygon","coordinates":[[[-127.156441,55.452246],[-127.148521,55.452246],[-127.148521,55.456737],[-127.156441,55.456737],[-127.156441,55.452246]]]}},{"type":"Feature","properties":{"TenureID":"AR-1142","Owner":"Aurora Ridge Minerals Corp."},"geometry":{"type":"Polygon","coordinates":[[[-127.148521,55.452246],[-127.140601,55.452246],[-127.140601,55.456737],[-127.148521,55.456737],[-127.148521,55.452246]]]}},{"type":"Feature","properties":{"TenureID":"AR-1143","Owner":"Aurora Ridge Minerals Corp."},"geometry":{"type":"Polygon","coordinates":[[[-127.259399,55.456737],[-127.251479,55.456737],[-127.251479,55.461229],[-127.259399,55.461229],[-127.259399,55.456737]]]}},{"type":"Feature","properties":{"TenureID":"AR-1144","Owner":"Aurora Ridge Minerals Corp."},"geometry":{"type":"Polygon","coordinates":[[[-127.251479,55.456737],[-127.243559,55.456737],[-127.243559,55.461229],[-127.251479,55.461229],[-127.251479,55.456737]]]}},{"type":"Feature","properties":{"TenureID":"AR-1145","Owner":"Aurora Ridge Minerals Corp."},"geometry":{"type":"Polygon","coordinates":[[[-127.243559,55.456737],[-127.235639,55.456737],[-127.235639,55.461229],[-127.243559,55.461229],[-127.243559,55.456737]]]}},{"type":"Feature","properties":{"TenureID":"AR-1146","Owner":"Aurora Ridge Minerals Corp."},"geometry":{"type":"Polygon","coordinates":[[[-127.235639,55.456737],[-127.22772,55.456737],[-127.22772,55.461229],[-127.235639,55.461229],[-127.235639,55.456737]]]}},{"type":"Feature","properties":{"TenureID":"AR-1147","Owner":"Aurora Ridge Minerals Corp."},"geometry":{"type":"Polygon","coordinates":[[[-127.22772,55.456737],[-127.2198,55.456737],[-127.2198,55.461229],[-127.22772,55.461229],[-127.22772,55.456737]]]}},{"type":"Feature","properties":{"TenureID":"AR-1148","Owner":"Aurora Ridge Minerals Corp."},"geometry":{"type":"Polygon","coordinates":[[[-127.2198,55.456737],[-127.21188,55.456737],[-127.21188,55.461229],[-127.2198,55.461229],[-127.2198,55.456737]]]}},{"type":"Feature","properties":{"TenureID":"AR-1149","Owner":"Aurora Ridge Minerals Corp."},"geometry":{"type":"Polygon","coordinates":[[[-127.21188,55.456737],[-127.20396,55.456737],[-127.20396,55.461229],[-127.21188,55.461229],[-127.21188,55.456737]]]}},{"type":"Feature","properties":{"TenureID":"AR-1150","Owner":"Aurora Ridge Minerals Corp."},"geometry":{"type":"Polygon","coordinates":[[[-127.20396,55.456737],[-127.19604,55.456737],[-127.19604,55.461229],[-127.20396,55.461229],[-127.20396,55.456737]]]}},{"type":"Feature","properties":{"TenureID":"AR-1151","Owner":"Aurora Ridge Minerals Corp."},"geometry":{"type":"Polygon","coordinates":[[[-127.19604,55.456737],[-127.18812,55.456737],[-127.18812,55.461229],[-127.19604,55.461229],[-127.19604,55.456737]]]}},{"type":"Feature","properties":{"TenureID":"AR-1152","Owner":"Aurora Ridge Minerals Corp."},"geometry":{"type":"Polygon","coordinates":[[[-127.18812,55.456737],[-127.1802,55.456737],[-127.1802,55.461229],[-127.18812,55.461229],[-127.18812,55.456737]]]}},{"type":"Feature","properties":{"TenureID":"AR-1153","Owner":"Aurora Ridge Minerals Corp."},"geometry":{"type":"Polygon","coordinates":[[[-127.1802,55.456737],[-127.17228,55.456737],[-127.17228,55.461229],[-127.1802,55.461229],[-127.1802,55.456737]]]}},{"type":"Feature","properties":{"TenureID":"AR-1154","Owner":"Aurora Ridge Minerals Corp."},"geometry":{"type":"Polygon","coordinates":[[[-127.17228,55.456737],[-127.164361,55.456737],[-127.164361,55.461229],[-127.17228,55.461229],[-127.17228,55.456737]]]}},{"type":"Feature","properties":{"TenureID":"AR-1155","Owner":"Aurora Ridge Minerals Corp."},"geometry":{"type":"Polygon","coordinates":[[[-127.164361,55.456737],[-127.156441,55.456737],[-127.156441,55.461229],[-127.164361,55.461229],[-127.164361,55.456737]]]}},{"type":"Feature","properties":{"TenureID":"AR-1156","Owner":"Aurora Ridge Minerals Corp."},"geometry":{"type":"Polygon","coordinates":[[[-127.156441,55.456737],[-127.148521,55.456737],[-127.148521,55.461229],[-127.156441,55.461229],[-127.156441,55.456737]]]}},{"type":"Feature","properties":{"TenureID":"AR-1157","Owner":"Aurora Ridge Minerals Corp."},"geometry":{"type":"Polygon","coordinates":[[[-127.148521,55.456737],[-127.140601,55.456737],[-127.140601,55.461229],[-127.148521,55.461229],[-127.148521,55.456737]]]}},{"type":"Feature","properties":{"TenureID":"AR-1158","Owner":"Aurora Ridge Minerals Corp."},"geometry":{"type":"Polygon","coordinates":[[[-127.251479,55.461229],[-127.243559,55.461229],[-127.243559,55.46572],[-127.251479,55.46572],[-127.251479,55.461229]]]}},{"type":"Feature","properties":{"TenureID":"AR-1159","Owner":"Aurora Ridge Minerals Corp."},"geometry":{"type":"Polygon","coordinates":[[[-127.243559,55.461229],[-127.235639,55.461229],[-127.235639,55.46572],[-127.243559,55.46572],[-127.243559,55.461229]]]}},{"type":"Feature","properties":{"TenureID":"AR-1160","Owner":"Aurora Ridge Minerals Corp."},"geometry":{"type":"Polygon","coordinates":[[[-127.235639,55.461229],[-127.22772,55.461229],[-127.22772,55.46572],[-127.235639,55.46572],[-127.235639,55.461229]]]}},{"type":"Feature","properties":{"TenureID":"AR-1161","Owner":"Aurora Ridge Minerals Corp."},"geometry":{"type":"Polygon","coordinates":[[[-127.22772,55.461229],[-127.2198,55.461229],[-127.2198,55.46572],[-127.22772,55.46572],[-127.22772,55.461229]]]}},{"type":"Feature","properties":{"TenureID":"AR-1162","Owner":"Aurora Ridge Minerals Corp."},"geometry":{"type":"Polygon","coordinates":[[[-127.2198,55.461229],[-127.21188,55.461229],[-127.21188,55.46572],[-127.2198,55.46572],[-127.2198,55.461229]]]}},{"type":"Feature","properties":{"TenureID":"AR-1163","Owner":"Aurora Ridge Minerals Corp."},"geometry":{"type":"Polygon","coordinates":[[[-127.21188,55.461229],[-127.20396,55.461229],[-127.20396,55.46572],[-127.21188,55.46572],[-127.21188,55.461229]]]}},{"type":"Feature","properties":{"TenureID":"AR-1164","Owner":"Aurora Ridge Minerals Corp."},"geometry":{"type":"Polygon","coordinates":[[[-127.20396,55.461229],[-127.19604,55.461229],[-127.19604,55.46572],[-127.20396,55.46572],[-127.20396,55.461229]]]}},{"type":"Feature","properties":{"TenureID":"AR-1165","Owner":"Aurora Ridge Minerals Corp."},"geometry":{"type":"Polygon","coordinates":[[[-127.19604,55.461229],[-127.18812,55.461229],[-127.18812,55.46572],[-127.19604,55.46572],[-127.19604,55.461229]]]}},{"type":"Feature","properties":{"TenureID":"AR-1166","Owner":"Aurora Ridge Minerals Corp."},"geometry":{"type":"Polygon","coordinates":[[[-127.18812,55.461229],[-127.1802,55.461229],[-127.1802,55.46572],[-127.18812,55.46572],[-127.18812,55.461229]]]}},{"type":"Feature","properties":{"TenureID":"AR-1167","Owner":"Aurora Ridge Minerals Corp."},"geometry":{"type":"Polygon","coordinates":[[[-127.1802,55.461229],[-127.17228,55.461229],[-127.17228,55.46572],[-127.1802,55.46572],[-127.1802,55.461229]]]}},{"type":"Feature","properties":{"TenureID":"AR-1168","Owner":"Aurora Ridge Minerals Corp."},"geometry":{"type":"Polygon","coordinates":[[[-127.17228,55.461229],[-127.164361,55.461229],[-127.164361,55.46572],[-127.17228,55.46572],[-127.17228,55.461229]]]}},{"type":"Feature","properties":{"TenureID":"AR-1169","Owner":"Aurora Ridge Minerals Corp."},"geometry":{"type":"Polygon","coordinates":[[[-127.164361,55.461229],[-127.156441,55.461229],[-127.156441,55.46572],[-127.164361,55.46572],[-127.164361,55.461229]]]}},{"type":"Feature","properties":{"TenureID":"AR-1170","Owner":"Aurora Ridge Minerals Corp."},"geometry":{"type":"Polygon","coordinates":[[[-127.251479,55.46572],[-127.243559,55.46572],[-127.243559,55.470212],[-127.251479,55.470212],[-127.251479,55.46572]]]}},{"type":"Feature","properties":{"TenureID":"AR-1171","Owner":"Aurora Ridge Minerals Corp."},"geometry":{"type":"Polygon","coordinates":[[[-127.243559,55.46572],[-127.235639,55.46572],[-127.235639,55.470212],[-127.243559,55.470212],[-127.243559,55.46572]]]}},{"type":"Feature","properties":{"TenureID":"AR-1172","Owner":"Aurora Ridge Minerals Corp."},"geometry":{"type":"Polygon","coordinates":[[[-127.235639,55.46572],[-127.22772,55.46572],[-127.22772,55.470212],[-127.235639,55.470212],[-127.235639,55.46572]]]}},{"type":"Feature","properties":{"TenureID":"AR-1173","Owner":"Aurora Ridge Minerals Corp."},"geometry":{"type":"Polygon","coordinates":[[[-127.22772,55.46572],[-127.2198,55.46572],[-127.2198,55.470212],[-127.22772,55.470212],[-127.22772,55.46572]]]}},{"type":"Feature","properties":{"TenureID":"AR-1174","Owner":"Aurora Ridge Minerals Corp."},"geometry":{"type":"Polygon","coordinates":[[[-127.2198,55.46572],[-127.21188,55.46572],[-127.21188,55.470212],[-127.2198,55.470212],[-127.2198,55.46572]]]}},{"type":"Feature","properties":{"TenureID":"AR-1175","Owner":"Aurora Ridge Minerals Corp."},"geometry":{"type":"Polygon","coordinates":[[[-127.21188,55.46572],[-127.20396,55.46572],[-127.20396,55.470212],[-127.21188,55.470212],[-127.21188,55.46572]]]}},{"type":"Feature","properties":{"TenureID":"AR-1176","Owner":"Aurora Ridge Minerals Corp."},"geometry":{"type":"Polygon","coordinates":[[[-127.20396,55.46572],[-127.19604,55.46572],[-127.19604,55.470212],[-127.20396,55.470212],[-127.20396,55.46572]]]}},{"type":"Feature","properties":{"TenureID":"AR-1177","Owner":"Aurora Ridge Minerals Corp."},"geometry":{"type":"Polygon","coordinates":[[[-127.19604,55.46572],[-127.18812,55.46572],[-127.18812,55.470212],[-127.19604,55.470212],[-127.19604,55.46572]]]}},{"type":"Feature","properties":{"TenureID":"AR-1178","Owner":"Aurora Ridge Minerals Corp."},"geometry":{"type":"Polygon","coordinates":[[[-127.18812,55.46572],[-127.1802,55.46572],[-127.1802,55.470212],[-127.18812,55.470212],[-127.18812,55.46572]]]}},{"type":"Feature","properties":{"TenureID":"AR-1179","Owner":"Aurora Ridge Minerals Corp."},"geometry":{"type":"Polygon","coordinates":[[[-127.1802,55.46572],[-127.17228,55.46572],[-127.17228,55.470212],[-127.1802,55.470212],[-127.1802,55.46572]]]}},{"type":"Feature","properties":{"TenureID":"AR-1180","Owner":"Aurora Ridge Minerals Corp."},"geometry":{"type":"Polygon","coordinates":[[[-127.17228,55.46572],[-127.164361,55.46572],[-127.164361,55.470212],[-127.17228,55.470212],[-127.17228,55.46572]]]}},{"type":"Feature","properties":{"TenureID":"AR-1181","Owner":"Aurora Ridge Minerals Corp."},"geometry":{"type":"Polygon","coordinates":[[[-127.164361,55.46572],[-127.156441,55.46572],[-127.156441,55.470212],[-127.164361,55.470212],[-127.164361,55.46572]]]}},{"type":"Feature","properties":{"TenureID":"AR-1182","Owner":"Aurora Ridge Minerals Corp."},"geometry":{"type":"Polygon","coordinates":[[[-127.156441,55.46572],[-127.148521,55.46572],[-127.148521,55.470212],[-127.156441,55.470212],[-127.156441,55.46572]]]}},{"type":"Feature","properties":{"TenureID":"AR-1183","Owner":"Aurora Ridge Minerals Corp."},"geometry":{"type":"Polygon","coordinates":[[[-127.235639,55.470212],[-127.22772,55.470212],[-127.22772,55.474704],[-127.235639,55.474704],[-127.235639,55.470212]]]}},{"type":"Feature","properties":{"TenureID":"AR-1184","Owner":"Aurora Ridge Minerals Corp."},"geometry":{"type":"Polygon","coordinates":[[[-127.22772,55.470212],[-127.2198,55.470212],[-127.2198,55.474704],[-127.22772,55.474704],[-127.22772,55.470212]]]}},{"type":"Feature","properties":{"TenureID":"AR-1185","Owner":"Aurora Ridge Minerals Corp."},"geometry":{"type":"Polygon","coordinates":[[[-127.2198,55.470212],[-127.21188,55.470212],[-127.21188,55.474704],[-127.2198,55.474704],[-127.2198,55.470212]]]}},{"type":"Feature","properties":{"TenureID":"AR-1186","Owner":"Aurora Ridge Minerals Corp."},"geometry":{"type":"Polygon","coordinates":[[[-127.21188,55.470212],[-127.20396,55.470212],[-127.20396,55.474704],[-127.21188,55.474704],[-127.21188,55.470212]]]}},{"type":"Feature","properties":{"TenureID":"AR-1187","Owner":"Aurora Ridge Minerals Corp."},"geometry":{"type":"Polygon","coordinates":[[[-127.20396,55.470212],[-127.19604,55.470212],[-127.19604,55.474704],[-127.20396,55.474704],[-127.20396,55.470212]]]}},{"type":"Feature","properties":{"TenureID":"AR-1188","Owner":"Aurora Ridge Minerals Corp."},"geometry":{"type":"Polygon","coordinates":[[[-127.19604,55.470212],[-127.18812,55.470212],[-127.18812,55.474704],[-127.19604,55.474704],[-127.19604,55.470212]]]}},{"type":"Feature","properties":{"TenureID":"AR-1189","Owner":"Aurora Ridge Minerals Corp."},"geometry":{"type":"Polygon","coordinates":[[[-127.18812,55.470212],[-127.1802,55.470212],[-127.1802,55.474704],[-127.18812,55.474704],[-127.18812,55.470212]]]}},{"type":"Feature","properties":{"TenureID":"AR-1190","Owner":"Aurora Ridge Minerals Corp."},"geometry":{"type":"Polygon","coordinates":[[[-127.1802,55.470212],[-127.17228,55.470212],[-127.17228,55.474704],[-127.1802,55.474704],[-127.1802,55.470212]]]}},{"type":"Feature","properties":{"TenureID":"AR-1191","Owner":"Aurora Ridge Minerals Corp."},"geometry":{"type":"Polygon","coordinates":[[[-127.17228,55.470212],[-127.164361,55.470212],[-127.164361,55.474704],[-127.17228,55.474704],[-127.17228,55.470212]]]}},{"type":"Feature","properties":{"TenureID":"AR-1192","Owner":"Aurora Ridge Minerals Corp."},"geometry":{"type":"Polygon","coordinates":[[[-127.22772,55.474704],[-127.2198,55.474704],[-127.2198,55.479195],[-127.22772,55.479195],[-127.22772,55.474704]]]}},{"type":"Feature","properties":{"TenureID":"AR-1193","Owner":"Aurora Ridge Minerals Corp."},"geometry":{"type":"Polygon","coordinates":[[[-127.2198,55.474704],[-127.21188,55.474704],[-127.21188,55.479195],[-127.2198,55.479195],[-127.2198,55.474704]]]}},{"type":"Feature","properties":{"TenureID":"AR-1194","Owner":"Aurora Ridge Minerals Corp."},"geometry":{"type":"Polygon","coordinates":[[[-127.21188,55.474704],[-127.20396,55.474704],[-127.20396,55.479195],[-127.21188,55.479195],[-127.21188,55.474704]]]}},{"type":"Feature","properties":{"TenureID":"AR-1195","Owner":"Aurora Ridge Minerals Corp."},"geometry":{"type":"Polygon","coordinates":[[[-127.20396,55.474704],[-127.19604,55.474704],[-127.19604,55.479195],[-127.20396,55.479195],[-127.20396,55.474704]]]}},{"type":"Feature","properties":{"TenureID":"AR-1196","Owner":"Aurora Ridge Minerals Corp."},"geometry":{"type":"Polygon","coordinates":[[[-127.19604,55.474704],[-127.18812,55.474704],[-127.18812,55.479195],[-127.19604,55.479195],[-127.19604,55.474704]]]}},{"type":"Feature","properties":{"TenureID":"AR-1197","Owner":"Aurora Ridge Minerals Corp."},"geometry":{"type":"Polygon","coordinates":[[[-127.18812,55.474704],[-127.1802,55.474704],[-127.1802,55.479195],[-127.18812,55.479195],[-127.18812,55.474704]]]}},{"type":"Feature","properties":{"TenureID":"AR-1198","Owner":"Aurora Ridge Minerals Corp."},"geometry":{"type":"Polygon","coordinates":[[[-127.21188,55.479195],[-127.20396,55.479195],[-127.20396,55.483687],[-127.21188,55.483687],[-127.21188,55.479195]]]}},{"type":"Feature","properties":{"TenureID":"AR-1199","Owner":"Aurora Ridge Minerals Corp."},"geometry":{"type":"Polygon","coordinates":[[[-127.20396,55.479195],[-127.19604,55.479195],[-127.19604,55.483687],[-127.20396,55.483687],[-127.20396,55.479195]]]}},{"type":"Feature","properties":{"TenureID":"AR-1200","Owner":"Aurora Ridge Minerals Corp."},"geometry":{"type":"Polygon","coordinates":[[[-127.19604,55.479195],[-127.18812,55.479195],[-127.18812,55.483687],[-127.19604,55.483687],[-127.19604,55.479195]]]}},{"type":"Feature","properties":{"TenureID":"AR-1201","Owner":"Aurora Ridge Minerals Corp."},"geometry":{"type":"Polygon","coordinates":[[[-127.18812,55.479195],[-127.1802,55.479195],[-127.1802,55.483687],[-127.18812,55.483687],[-127.18812,55.479195]]]}}]}
