{"type":"FeatureCollection","features":[{"type":"Feature","geometry":{"type":"Polygon","coordinates":[[[-120.03478246,49.52210606],[-120.03478519,49.52660091],[-120.0416904,49.52659893],[-120.04168702,49.52210407],[-120.03478246,49.52210606]]]},"properties":{"claim_id":415497,"claim_name":"ISINTOK 5","area_ha":25,"good_to_date":"2027-12-31","province":"BC"}},{"type":"Feature","geometry":{"type":"Polygon","coordinates":[[[-120.04859561,49.52659652],[-120.0416904,49.52659892],[-120.04169376,49.53109379],[-120.0485996,49.53109139],[-120.04859561,49.52659652]]]},"properties":{"claim_id":415498,"claim_name":"ISINTOK 6","area_ha":25,"good_to_date":"2027-12-31","province":"BC"}},{"type":"Feature","geometry":{"type":"Polygon","coordinates":[[[-122.40130425,49.8581725],[-122.40755435,49.8581727],[-122.40755449,49.85400583],[-122.40130437,49.85400564],[-122.40130452,49.84983876],[-122.39505436,49.84983891],[-122.39505448,49.84567205],[-122.38880431,49.84567186],[-122.38255412,49.845672],[-122.38255408,49.84983885],[-122.38880423,49.84983871],[-122.38880413,49.85400558],[-122.39505425,49.85400578],[-122.39505413,49.85817264],[-122.40130425,49.8581725]]]},"properties":{"claim_id":1092451,"claim_name":"MONEY SPINNER","area_ha":124.9916,"good_to_date":"2027-12-31","province":"BC"}},{"type":"Feature","geometry":{"type":"Polygon","coordinates":[[[-122.44504406,50.08319883],[-122.44504436,50.07903158],[-122.44504463,50.07486434],[-122.44504492,50.0706971],[-122.44504519,50.06652985],[-122.43879542,50.06652986],[-122.43254565,50.06653021],[-122.42629589,50.06653022],[-122.42004624,50.0665305],[-122.41379661,50.06653043],[-122.40754724,50.06653054],[-122.40129788,50.06653032],[-122.39504851,50.06653043],[-122.38879914,50.06653021],[-122.38254976,50.06653032],[-122.37630041,50.06653009],[-122.37005103,50.06653021],[-122.36380166,50.06652998],[-122.36380112,50.07069715],[-122.36380056,50.07486431],[-122.36380002,50.07903148],[-122.36379945,50.08319864],[-122.36379929,50.0873655],[-122.3700487,50.08736576],[-122.37629813,50.0873657],[-122.38254755,50.08736596],[-122.38879697,50.08736588],[-122.39504638,50.08736614],[-122.40129581,50.08736607],[-122.40754523,50.08736633],[-122.41379465,50.08736626],[-122.4200444,50.08736635],[-122.42629414,50.08736611],[-122.43254403,50.0873661],[-122.43879394,50.08736576],[-122.44504386,50.08736577],[-122.44504406,50.08319883]]]},"properties":{"claim_id":1106007,"claim_name":"RC-002","area_ha":1347.7979,"good_to_date":"2028-02-20","province":"BC"}},{"type":"Feature","geometry":{"type":"Polygon","coordinates":[[[-120.04498502,49.53738729],[-120.05123538,49.53738697],[-120.05123521,49.53322021],[-120.04498486,49.53322054],[-120.04498502,49.53738729]]]},"properties":{"claim_id":1110548,"claim_name":"Isintok Cell","area_ha":20.9667,"good_to_date":"2027-12-31","province":"BC"}},{"type":"Feature","geometry":{"type":"Polygon","coordinates":[[[-120.02623347,49.52072054],[-120.02623335,49.51655378],[-120.02623322,49.51238701],[-120.02623308,49.50822026],[-120.02623296,49.5040535],[-120.02623281,49.49988674],[-120.01998252,49.49988704],[-120.01373226,49.49988701],[-120.00748196,49.49988732],[-120.00123169,49.49988729],[-120.00123179,49.50405406],[-120.00123169,49.49988729],[-119.99498149,49.49988754],[-119.9887313,49.49988744],[-119.98873135,49.50405422],[-119.98873144,49.50822098],[-119.98873149,49.51238775],[-119.98873158,49.51655453],[-119.99498184,49.51655462],[-119.99498191,49.52072139],[-119.99498201,49.52488815],[-120.00123229,49.52488789],[-120.00123229,49.5248879],[-120.00748261,49.52488791],[-120.01373294,49.5248876],[-120.01998325,49.52488762],[-120.0262336,49.5248873],[-120.02623347,49.52072054]]]},"properties":{"claim_id":1121607,"claim_name":"CP-001","area_ha":713.2016,"good_to_date":"2027-12-31","province":"BC"}},{"type":"Feature","geometry":{"type":"Polygon","coordinates":[[[-120.05123459,49.51655319],[-120.05123443,49.51238645],[-120.05123426,49.50821969],[-120.04498395,49.50822001],[-120.03873368,49.50821997],[-120.03248336,49.50822029],[-120.02623308,49.50822026],[-120.02623322,49.51238701],[-120.02623335,49.51655378],[-120.02623347,49.52072054],[-120.0262336,49.5248873],[-120.0324839,49.52488732],[-120.03873424,49.52488701],[-120.0387341,49.52072025],[-120.04498441,49.52072027],[-120.05123474,49.52071995],[-120.05123459,49.51655319]]]},"properties":{"claim_id":1121608,"claim_name":"CP-002","area_ha":293.649,"good_to_date":"2027-12-31","province":"BC"}},{"type":"Feature","geometry":{"type":"Polygon","coordinates":[[[-120.03873483,49.54155403],[-120.03873468,49.53738728],[-120.03873453,49.53322051],[-120.03873439,49.52905377],[-120.03873424,49.52488701],[-120.0324839,49.52488732],[-120.0262336,49.5248873],[-120.01998325,49.52488762],[-120.01373294,49.5248876],[-120.00748261,49.52488791],[-120.00748271,49.52905468],[-120.00748281,49.53322145],[-120.00748294,49.53738822],[-120.00748303,49.54155498],[-120.01373341,49.54155465],[-120.01998374,49.54155468],[-120.02623411,49.54155435],[-120.03248446,49.54155436],[-120.0324846,49.54572112],[-120.03873497,49.54572079],[-120.03873483,49.54155403]]]},"properties":{"claim_id":1121609,"claim_name":"CP-003","area_ha":440.3159,"good_to_date":"2027-12-31","province":"BC"}},{"type":"Feature","geometry":{"type":"Polygon","coordinates":[[[-120.04498563,49.55405431],[-120.04498547,49.54988756],[-120.04498533,49.5457208],[-120.04498516,49.54155405],[-120.04498502,49.53738729],[-120.04498486,49.53322054],[-120.04498472,49.52905378],[-120.03873439,49.52905377],[-120.03873453,49.53322051],[-120.03873468,49.53738728],[-120.03873483,49.54155403],[-120.03873497,49.54572079],[-120.0324846,49.54572112],[-120.02623424,49.54572111],[-120.01998387,49.54572144],[-120.01998398,49.5498882],[-120.02623436,49.54988787],[-120.02623449,49.55405463],[-120.02623462,49.55822139],[-120.03248499,49.5582214],[-120.03873539,49.55822106],[-120.04498576,49.55822107],[-120.04498563,49.55405431]]]},"properties":{"claim_id":1121610,"claim_name":"CP-004","area_ha":293.4622,"good_to_date":"2027-12-31","province":"BC"}},{"type":"Feature","geometry":{"type":"MultiPolygon","coordinates":[[[[-120.02623449,49.55405463],[-120.02623436,49.54988787],[-120.01998398,49.5498882],[-120.01998387,49.54572144],[-120.02623424,49.54572111],[-120.0324846,49.54572112],[-120.03248446,49.54155436],[-120.02623411,49.54155435],[-120.01998374,49.54155468],[-120.01373341,49.54155465],[-120.00748303,49.54155498],[-120.00748294,49.53738822],[-120.00748281,49.53322145],[-120.00748271,49.52905468],[-120.00748261,49.52488791],[-120.00123229,49.5248879],[-120.00123229,49.52488789],[-119.99498201,49.52488815],[-119.99498209,49.52905493],[-119.99498217,49.53322169],[-119.99498225,49.53738846],[-119.99498233,49.54155523],[-119.99498242,49.545722],[-119.99498251,49.54988877],[-119.99498259,49.55405555],[-119.99498269,49.55822231],[-120.0012331,49.55822203],[-120.0012331,49.55822204],[-120.00748347,49.55822205],[-120.01373386,49.55822172],[-120.01998423,49.55822172],[-120.02623462,49.55822139],[-120.02623449,49.55405463]],[[-120.00123309,49.55789575],[-120.00123298,49.55405527],[-120.00123294,49.55197189],[-120.001233,49.55405527],[-120.00123309,49.55789575]]]]},"properties":{"claim_id":1121611,"claim_name":"CP-005","area_ha":586.956,"good_to_date":"2027-12-31","province":"BC"}},{"type":"Feature","geometry":{"type":"Polygon","coordinates":[[[-120.05123506,49.52905346],[-120.05123489,49.52488671],[-120.05123474,49.52071995],[-120.04498441,49.52072027],[-120.0387341,49.52072025],[-120.03873424,49.52488701],[-120.03873439,49.52905377],[-120.04498472,49.52905378],[-120.04498486,49.53322054],[-120.05123521,49.53322021],[-120.05123506,49.52905346]]]},"properties":{"claim_id":1121612,"claim_name":"CP-006","area_ha":104.852,"good_to_date":"2027-12-31","province":"BC"}},{"type":"Feature","geometry":{"type":"Polygon","coordinates":[[[-120.06373537,49.52071966],[-120.0637352,49.51655291],[-120.06373503,49.51238616],[-120.06373486,49.5082194],[-120.05748456,49.50821971],[-120.05123426,49.50821969],[-120.05123443,49.51238645],[-120.05123459,49.51655319],[-120.05123474,49.52071995],[-120.05123489,49.52488671],[-120.05123506,49.52905346],[-120.05123521,49.53322021],[-120.05123538,49.53738697],[-120.04498502,49.53738729],[-120.04498516,49.54155405],[-120.04498533,49.5457208],[-120.04498547,49.54988756],[-120.05123584,49.54988723],[-120.0574862,49.54988725],[-120.05748606,49.54572049],[-120.05748588,49.54155374],[-120.05748572,49.53738699],[-120.05748555,49.53322024],[-120.05748539,49.52905348],[-120.05748522,49.52488673],[-120.06373555,49.52488641],[-120.06373537,49.52071966]]]},"properties":{"claim_id":1121613,"claim_name":"CP-007","area_ha":356.481,"good_to_date":"2027-12-31","province":"BC"}},{"type":"Feature","geometry":{"type":"Polygon","coordinates":[[[-122.40130291,49.89984118],[-122.40130303,49.89567431],[-122.40130317,49.89150744],[-122.39505326,49.89150754],[-122.38880334,49.89150729],[-122.38880343,49.88734044],[-122.3825535,49.88734054],[-122.37630356,49.8873403],[-122.37005363,49.8873404],[-122.3700536,49.89150725],[-122.36380371,49.89150701],[-122.36380369,49.88734017],[-122.35755375,49.88734027],[-122.35130381,49.88734003],[-122.34505389,49.88734014],[-122.33880395,49.8873399],[-122.33880384,49.88317307],[-122.33880373,49.87900626],[-122.33880365,49.87483943],[-122.33255358,49.8748396],[-122.32630351,49.87483943],[-122.32005341,49.87483962],[-122.32005357,49.87900644],[-122.31380348,49.8790063],[-122.31380365,49.88317311],[-122.31380381,49.88733992],[-122.32005387,49.88734006],[-122.32005401,49.89150688],[-122.32630405,49.8915067],[-122.32630418,49.89567351],[-122.33255418,49.8956737],[-122.33255428,49.89984051],[-122.3325544,49.90400733],[-122.33255453,49.90817415],[-122.33880446,49.908174],[-122.33880455,49.91234083],[-122.34505435,49.91234109],[-122.34505443,49.91650792],[-122.35130421,49.91650784],[-122.3513046,49.92067523],[-122.35755434,49.92067549],[-122.36380407,49.92067541],[-122.37005381,49.92067567],[-122.37630356,49.92067559],[-122.3825533,49.92067586],[-122.38255304,49.91650851],[-122.38880281,49.91650845],[-122.38880291,49.9123416],[-122.39505271,49.91234186],[-122.39505281,49.90817499],[-122.39505293,49.90400813],[-122.40130277,49.90400804],[-122.40130291,49.89984118]]]},"properties":{"claim_id":1129578,"claim_name":"Fire Mountain North","area_ha":1789.7326,"good_to_date":"2027-12-31","province":"BC"}},{"type":"Feature","geometry":{"type":"Polygon","coordinates":[[[-122.48879405,50.02485592],[-122.48879409,50.02068868],[-122.48879413,50.01652144],[-122.48254477,50.01652178],[-122.48254485,50.01235455],[-122.47629552,50.01235457],[-122.47629563,50.00818732],[-122.47004633,50.00818768],[-122.47004648,50.00402043],[-122.46379723,50.00402046],[-122.4637974,49.99985321],[-122.45754817,49.99985356],[-122.45129895,49.99985359],[-122.44504972,49.99985395],[-122.44504944,50.0040212],[-122.44504915,50.00818844],[-122.44504888,50.01235568],[-122.4450486,50.01652293],[-122.4450483,50.02069017],[-122.44504803,50.02485742],[-122.44504774,50.02902466],[-122.43879827,50.02902468],[-122.4325488,50.02902504],[-122.43254846,50.03319227],[-122.42629896,50.0331923],[-122.42629857,50.03735954],[-122.42004913,50.03735983],[-122.42004871,50.04152706],[-122.4262982,50.04152677],[-122.43254776,50.04152676],[-122.43879734,50.04152641],[-122.44504689,50.04152638],[-122.45129646,50.04152603],[-122.45754603,50.04152602],[-122.45754624,50.03735877],[-122.46379578,50.03735842],[-122.47004531,50.0373584],[-122.47629485,50.03735804],[-122.47629496,50.0331908],[-122.47629507,50.02902356],[-122.48254453,50.02902353],[-122.488794,50.02902318],[-122.48879405,50.02485592]]]},"properties":{"claim_id":1133182,"claim_name":"RC-004","area_ha":1245.5046,"good_to_date":"2026-12-31","province":"BC"}},{"type":"Feature","geometry":{"type":"Polygon","coordinates":[[[-122.45754496,50.06236225],[-122.45754516,50.05819501],[-122.45754539,50.05402775],[-122.4575456,50.0498605],[-122.45754582,50.04569327],[-122.45754603,50.04152602],[-122.45129646,50.04152603],[-122.44504689,50.04152638],[-122.43879734,50.04152641],[-122.43254776,50.04152676],[-122.4262982,50.04152677],[-122.42004871,50.04152706],[-122.41379925,50.04152702],[-122.4137988,50.04569425],[-122.4075495,50.0456944],[-122.40754905,50.04986163],[-122.40129975,50.04986144],[-122.40129926,50.05402867],[-122.39504995,50.05402881],[-122.39504947,50.058196],[-122.38880014,50.05819579],[-122.38255078,50.05819593],[-122.38255028,50.06236313],[-122.37630093,50.06236291],[-122.37630041,50.06653009],[-122.38254976,50.06653032],[-122.38879914,50.06653021],[-122.39504851,50.06653043],[-122.40129788,50.06653032],[-122.40754724,50.06653054],[-122.41379661,50.06653043],[-122.42004624,50.0665305],[-122.42629589,50.06653022],[-122.43254565,50.06653021],[-122.43879542,50.06652986],[-122.44504519,50.06652985],[-122.45129497,50.06652951],[-122.45754474,50.0665295],[-122.45754496,50.06236225]]]},"properties":{"claim_id":1133184,"claim_name":"RC-001","area_ha":1223.9508,"good_to_date":"2028-02-20","province":"BC"}},{"type":"Feature","geometry":{"type":"Polygon","coordinates":[[[-92.39375816239237,50.02500876724302],[-92.39375816162216,50.020842096721594],[-92.38750815969513,50.020842097201076],[-92.38750815892524,50.01667543667948],[-92.38125815699813,50.01667543715886],[-92.3812581577679,50.02084209768049],[-92.37500815584055,50.020842098159854],[-92.3687581539131,50.02084209863913],[-92.36875815468287,50.02500876916077],[-92.36875815545285,50.02917543968236],[-92.3750081573805,50.02917543920299],[-92.37500815815082,50.03334209972445],[-92.37500815892133,50.03750877024579],[-92.37500815969206,50.04167544076704],[-92.375008160463,50.04584210128825],[-92.38125816239103,50.0458421008086],[-92.38125816161998,50.04167544028745],[-92.38125816084914,50.037508769766255],[-92.38125816007852,50.03334209924495],[-92.38750816200607,50.03334209876536],[-92.39375816393343,50.03334209828573],[-92.39375816316279,50.02917543776443],[-92.39375816239237,50.02500876724302]]]},"properties":{"claim_id":"864260","claim_name":"","area_ha":311,"good_to_date":"2026-10-11","province":"ON"}},{"type":"Feature","geometry":{"type":"Polygon","coordinates":[[[-92.37500815815082,50.03334209972445],[-92.3750081573805,50.02917543920299],[-92.36875815545285,50.02917543968236],[-92.36875815468287,50.02500876916077],[-92.36250815275514,50.02500876964003],[-92.362508153525,50.02917544016168],[-92.36250815429509,50.033342100683235],[-92.35625815236705,50.03334210116253],[-92.35000815043882,50.03334210164174],[-92.34375814851046,50.03334210212091],[-92.34375814928042,50.03750877264251],[-92.3437581500506,50.04167544316399],[-92.34375815082097,50.04584210368544],[-92.34375815159157,50.0500087742068],[-92.34375815236238,50.054175444728024],[-92.35000815429132,50.05417544424863],[-92.35000815352039,50.050008773727455],[-92.35625815544905,50.050008773248024],[-92.36250815737755,50.05000877276854],[-92.36250815660661,50.04584210224732],[-92.3687581585349,50.045842101767825],[-92.375008160463,50.04584210128825],[-92.37500815969206,50.04167544076704],[-92.37500815892133,50.03750877024579],[-92.37500815815082,50.03334209972445]]]},"properties":{"claim_id":"864261","claim_name":"","area_ha":456,"good_to_date":"2026-10-11","province":"ON"}},{"type":"Feature","geometry":{"type":"Polygon","coordinates":[[[-92.34375815236238,50.054175444728024],[-92.34375815159157,50.0500087742068],[-92.33750814966268,50.05000877468608],[-92.33125814773359,50.05000877516528],[-92.32500814580443,50.05000877564442],[-92.31875814387509,50.0500087761235],[-92.31250814194559,50.05000877660251],[-92.30625814001603,50.05000877708144],[-92.30000813808627,50.050008777560315],[-92.3000081388563,50.05417544808188],[-92.30000813962654,50.0583421086034],[-92.300008140397,50.06250877912487],[-92.3062581423271,50.06250877864586],[-92.312508144257,50.06250877816677],[-92.31875814618681,50.062508777687626],[-92.32500814811651,50.0625087772084],[-92.331258150046,50.06250877672912],[-92.33750815197543,50.06250877624976],[-92.34375815390466,50.06250877577033],[-92.34375815313341,50.05834210524921],[-92.34375815236238,50.054175444728024]]]},"properties":{"claim_id":"864262","claim_name":"","area_ha":435.1,"good_to_date":"2026-10-11","province":"ON"}},{"type":"Feature","geometry":{"type":"Polygon","coordinates":[[[-92.34375814928042,50.03750877264251],[-92.34375814851046,50.03334210212091],[-92.33750814658201,50.033342102599995],[-92.33125814465336,50.033342103079],[-92.32500814272466,50.033342103557956],[-92.32500814349429,50.03750877407971],[-92.31875814156525,50.037508774558624],[-92.31875814233499,50.04167544508031],[-92.31250814040571,50.04167544555921],[-92.30625813847637,50.041675446038056],[-92.30000813654684,50.04167544651682],[-92.30000813731644,50.0458421070386],[-92.30000813808627,50.050008777560315],[-92.30625814001603,50.05000877708144],[-92.31250814194559,50.05000877660251],[-92.31875814387509,50.0500087761235],[-92.32500814580443,50.05000877564442],[-92.33125814773359,50.05000877516528],[-92.33750814966268,50.05000877468608],[-92.34375815159157,50.0500087742068],[-92.34375815082097,50.04584210368544],[-92.3437581500506,50.04167544316399],[-92.34375814928042,50.03750877264251]]]},"properties":{"claim_id":"864263","claim_name":"","area_ha":435.2,"good_to_date":"2026-10-11","province":"ON"}}]}