{"type":"FeatureCollection","features":[{"type":"Feature","geometry":{"type":"Polygon","coordinates":[[[-124.1328335,55.09160878],[-124.13283364,55.08744216],[-124.13283374,55.08327555],[-124.13283391,55.07910902],[-124.12658341,55.07910876],[-124.12033293,55.07910882],[-124.11408244,55.07910856],[-124.10783195,55.07910861],[-124.10158144,55.07910835],[-124.09533097,55.07910841],[-124.08908046,55.07910816],[-124.08282999,55.07910821],[-124.08282981,55.08327473],[-124.08282971,55.08744136],[-124.08282963,55.09160799],[-124.08908009,55.09160792],[-124.09533056,55.09160818],[-124.10158105,55.09160812],[-124.10783155,55.09160838],[-124.11408204,55.09160831],[-124.12033252,55.09160858],[-124.12658302,55.09160852],[-124.12658289,55.09577513],[-124.13283338,55.09577538],[-124.1328335,55.09160878]]]},"properties":{"claim_id":677803,"claim_name":"","area_ha":462.8506,"good_to_date":"2028-05-01","province":"BC"}},{"type":"Feature","geometry":{"type":"Polygon","coordinates":[[[-124.12033146,55.12910812],[-124.12033158,55.12494151],[-124.12033169,55.12077489],[-124.12033183,55.11660827],[-124.12033194,55.11244165],[-124.12033204,55.10827504],[-124.11408159,55.10827479],[-124.10783113,55.10827486],[-124.10158064,55.10827461],[-124.09533018,55.10827468],[-124.09533008,55.11244131],[-124.09532999,55.11660794],[-124.09532988,55.12077457],[-124.09532977,55.1249412],[-124.09532967,55.12910781],[-124.09532958,55.13327444],[-124.10158001,55.13327434],[-124.10783045,55.13327458],[-124.11408089,55.13327451],[-124.12033135,55.13327473],[-124.12033146,55.12910812]]]},"properties":{"claim_id":679146,"claim_name":"MILIGAN JG","area_ha":443.9511,"good_to_date":"2028-05-01","province":"BC"}},{"type":"Feature","geometry":{"type":"Polygon","coordinates":[[[-124.132833,55.10827522],[-124.13283314,55.1041086],[-124.13283324,55.09994199],[-124.13283338,55.09577538],[-124.12658289,55.09577513],[-124.12658302,55.09160852],[-124.12033252,55.09160858],[-124.11408204,55.09160831],[-124.10783155,55.09160838],[-124.10158105,55.09160812],[-124.09533056,55.09160818],[-124.09533047,55.09577481],[-124.09533037,55.09994143],[-124.09533027,55.10410807],[-124.09533018,55.10827468],[-124.10158064,55.10827461],[-124.10783113,55.10827486],[-124.11408159,55.10827479],[-124.12033204,55.10827504],[-124.12033194,55.11244165],[-124.12658239,55.11244158],[-124.13283288,55.11244183],[-124.132833,55.10827522]]]},"properties":{"claim_id":679151,"claim_name":"","area_ha":462.6773,"good_to_date":"2028-05-01","province":"BC"}},{"type":"Feature","geometry":{"type":"Polygon","coordinates":[[[-124.16408535,55.10827549],[-124.16408548,55.1041089],[-124.16408565,55.0999423],[-124.16408578,55.0957757],[-124.15783531,55.09577576],[-124.15158482,55.09577551],[-124.14533435,55.09577558],[-124.13908385,55.09577532],[-124.13283338,55.09577538],[-124.13283324,55.09994199],[-124.13283314,55.1041086],[-124.132833,55.10827522],[-124.13283288,55.11244183],[-124.13908333,55.11244175],[-124.14533379,55.112442],[-124.15158426,55.11244193],[-124.15783474,55.11244218],[-124.1640852,55.1124421],[-124.16408535,55.10827549]]]},"properties":{"claim_id":679152,"claim_name":"","area_ha":370.112,"good_to_date":"2028-05-01","province":"BC"}},{"type":"Feature","geometry":{"type":"Polygon","coordinates":[[[-124.16408594,55.09160909],[-124.16408608,55.0874425],[-124.16408622,55.0832759],[-124.16408637,55.07910937],[-124.15783588,55.07910943],[-124.15158538,55.07910917],[-124.1453349,55.07910923],[-124.1390844,55.07910896],[-124.13283391,55.07910902],[-124.13283374,55.08327555],[-124.13283364,55.08744216],[-124.1328335,55.09160878],[-124.13283338,55.09577538],[-124.13908385,55.09577532],[-124.14533435,55.09577558],[-124.15158482,55.09577551],[-124.15783531,55.09577576],[-124.16408578,55.0957757],[-124.16408594,55.09160909]]]},"properties":{"claim_id":839591,"claim_name":"","area_ha":370.2642,"good_to_date":"2028-05-01","province":"BC"}},{"type":"Feature","geometry":{"type":"Polygon","coordinates":[[[-124.18283731,55.09160943],[-124.18283746,55.08744284],[-124.18283762,55.08327624],[-124.18283775,55.0791097],[-124.17658728,55.07910951],[-124.17033683,55.0791096],[-124.16408637,55.07910937],[-124.16408622,55.0832759],[-124.16408608,55.0874425],[-124.16408594,55.09160909],[-124.16408578,55.0957757],[-124.17033624,55.09577592],[-124.1765867,55.09577582],[-124.18283715,55.09577603],[-124.18283731,55.09160943]]]},"properties":{"claim_id":839596,"claim_name":"","area_ha":222.1572,"good_to_date":"2028-05-01","province":"BC"}},{"type":"Feature","geometry":{"type":"Polygon","coordinates":[[[-124.18283639,55.11660902],[-124.18283654,55.11244242],[-124.1828367,55.10827582],[-124.18283684,55.10410923],[-124.182837,55.09994263],[-124.18283715,55.09577603],[-124.1765867,55.09577582],[-124.17033624,55.09577592],[-124.16408578,55.0957757],[-124.16408565,55.0999423],[-124.16408548,55.1041089],[-124.16408535,55.10827549],[-124.1640852,55.1124421],[-124.15783474,55.11244218],[-124.15158426,55.11244193],[-124.15158413,55.11660852],[-124.151584,55.12077514],[-124.15783444,55.12077538],[-124.1640849,55.1207753],[-124.17033535,55.12077552],[-124.17658579,55.12077541],[-124.18283623,55.12077561],[-124.18283639,55.11660902]]]},"properties":{"claim_id":1016221,"claim_name":"","area_ha":407.0638,"good_to_date":"2029-07-31","province":"BC"}}]}